[
    {
        "Altitude(m)": 554271.096932986,
        "Argument of Periapsis(deg)": 0.026491964442854003,
        "Eccentricity": 0.0,
        "Inclination(deg)": 53.0,
        "Latitude(deg)": 24.58153734475439,
        "Longitude(deg)": -108.13498714432149,
        "Mean Anomaly(deg)": -328.72442852968976,
        "RAAN(deg)": 334.9605734741121,
        "Satellite Name": "Starlink Shell 1 1495",
        "Satellite Number": 1495,
        "Semi-Major Axis(m)": 6931778.249405717,
        "Time(s)": 760
    },
    {
        "Altitude(m)": 554329.1859533726,
        "Argument of Periapsis(deg)": 0.02684054292236524,
        "Eccentricity": 0.0,
        "Inclination(deg)": 53.0,
        "Latitude(deg)": 25.05360927490388,
        "Longitude(deg)": -107.71946525510396,
        "Mean Anomaly(deg)": -328.0975973261329,
        "RAAN(deg)": 334.96005470403463,
        "Satellite Name": "Starlink Shell 1 1495",
        "Satellite Number": 1495,
        "Semi-Major Axis(m)": 6931778.249405717,
        "Time(s)": 770
    },
    {
        "Altitude(m)": 554388.8864411091,
        "Argument of Periapsis(deg)": 0.027189121401876473,
        "Eccentricity": 0.0,
        "Inclination(deg)": 53.0,
        "Latitude(deg)": 25.52423661289555,
        "Longitude(deg)": -107.30043855841211,
        "Mean Anomaly(deg)": -327.47076612257626,
        "RAAN(deg)": 334.95953593395717,
        "Satellite Name": "Starlink Shell 1 1495",
        "Satellite Number": 1495,
        "Semi-Major Axis(m)": 6931778.249405717,
        "Time(s)": 780
    },
    {
        "Altitude(m)": 554450.1496000689,
        "Argument of Periapsis(deg)": 0.02753769988138771,
        "Eccentricity": 0.0,
        "Inclination(deg)": 53.0,
        "Latitude(deg)": 25.99337754109779,
        "Longitude(deg)": -106.87781483092836,
        "Mean Anomaly(deg)": -326.84393491901955,
        "RAAN(deg)": 334.95901716387965,
        "Satellite Name": "Starlink Shell 1 1495",
        "Satellite Number": 1495,
        "Semi-Major Axis(m)": 6931778.249405717,
        "Time(s)": 790
    },
    {
        "Altitude(m)": 554512.9260272969,
        "Argument of Periapsis(deg)": 0.02788627836089895,
        "Eccentricity": 0.0,
        "Inclination(deg)": 53.0,
        "Latitude(deg)": 26.460989360897862,
        "Longitude(deg)": -106.45150106760286,
        "Mean Anomaly(deg)": -326.2171037154628,
        "RAAN(deg)": 334.9584983938022,
        "Satellite Name": "Starlink Shell 1 1495",
        "Satellite Number": 1495,
        "Semi-Major Axis(m)": 6931778.249405717,
        "Time(s)": 800
    },
    {
        "Altitude(m)": 554577.165739597,
        "Argument of Periapsis(deg)": 0.02823485684041019,
        "Eccentricity": 0.0,
        "Inclination(deg)": 53.0,
        "Latitude(deg)": 26.927028465185657,
        "Longitude(deg)": -106.02140296563306,
        "Mean Anomaly(deg)": -325.59027251190605,
        "RAAN(deg)": 334.9579796237247,
        "Satellite Name": "Starlink Shell 1 1495",
        "Satellite Number": 1495,
        "Semi-Major Axis(m)": 6931778.249405717,
        "Time(s)": 810
    },
    {
        "Altitude(m)": 554642.8182003612,
        "Argument of Periapsis(deg)": 0.028583435319921423,
        "Eccentricity": 0.0,
        "Inclination(deg)": 53.0,
        "Latitude(deg)": 27.391450310316415,
        "Longitude(deg)": -105.58742441041585,
        "Mean Anomaly(deg)": -324.96344130834945,
        "RAAN(deg)": 334.95746085364726,
        "Satellite Name": "Starlink Shell 1 1495",
        "Satellite Number": 1495,
        "Semi-Major Axis(m)": 6931778.249405717,
        "Time(s)": 820
    },
    {
        "Altitude(m)": 554709.8323465787,
        "Argument of Periapsis(deg)": 0.028932013799432665,
        "Eccentricity": 0.0,
        "Inclination(deg)": 53.0,
        "Latitude(deg)": 27.85420938756034,
        "Longitude(deg)": -105.14946847653347,
        "Mean Anomaly(deg)": -324.3366101047927,
        "RAAN(deg)": 334.95694208356974,
        "Satellite Name": "Starlink Shell 1 1495",
        "Satellite Number": 1495,
        "Semi-Major Axis(m)": 6931778.249405717,
        "Time(s)": 830
    },
    {
        "Altitude(m)": 554778.1566161567,
        "Argument of Periapsis(deg)": 0.029280592278943897,
        "Eccentricity": 0.0,
        "Inclination(deg)": 53.0,
        "Latitude(deg)": 28.31525919404792,
        "Longitude(deg)": -104.70743691823023,
        "Mean Anomaly(deg)": -323.70977890123595,
        "RAAN(deg)": 334.95642331349234,
        "Satellite Name": "Starlink Shell 1 1495",
        "Satellite Number": 1495,
        "Semi-Major Axis(m)": 6931778.249405717,
        "Time(s)": 840
    },
    {
        "Altitude(m)": 554847.7389753712,
        "Argument of Periapsis(deg)": 0.029629170758455132,
        "Eccentricity": 0.0,
        "Inclination(deg)": 53.0,
        "Latitude(deg)": 28.774552203224463,
        "Longitude(deg)": -104.2612296624713,
        "Mean Anomaly(deg)": -323.08294769767923,
        "RAAN(deg)": 334.9559045434148,
        "Satellite Name": "Starlink Shell 1 1495",
        "Satellite Number": 1495,
        "Semi-Major Axis(m)": 6931778.249405717,
        "Time(s)": 850
    },
    {
        "Altitude(m)": 554918.52694655,
        "Argument of Periapsis(deg)": 0.02997774923796637,
        "Eccentricity": 0.0,
        "Inclination(deg)": 53.0,
        "Latitude(deg)": 29.232039834831948,
        "Longitude(deg)": -103.81074598578063,
        "Mean Anomaly(deg)": -322.4561164941225,
        "RAAN(deg)": 334.95538577333735,
        "Satellite Name": "Starlink Shell 1 1495",
        "Satellite Number": 1495,
        "Semi-Major Axis(m)": 6931778.249405717,
        "Time(s)": 860
    },
    {
        "Altitude(m)": 554990.4676359018,
        "Argument of Periapsis(deg)": 0.030326327717477602,
        "Eccentricity": 0.0,
        "Inclination(deg)": 53.0,
        "Latitude(deg)": 29.68767242443464,
        "Longitude(deg)": -103.35588317268397,
        "Mean Anomaly(deg)": -321.82928529056585,
        "RAAN(deg)": 334.9548670032599,
        "Satellite Name": "Starlink Shell 1 1495",
        "Satellite Number": 1495,
        "Semi-Major Axis(m)": 6931778.249405717,
        "Time(s)": 870
    },
    {
        "Altitude(m)": 555063.507761558,
        "Argument of Periapsis(deg)": 0.030674906196988847,
        "Eccentricity": 0.0,
        "Inclination(deg)": 53.0,
        "Latitude(deg)": 30.141399192514765,
        "Longitude(deg)": -102.89653769892747,
        "Mean Anomaly(deg)": -321.2024540870091,
        "RAAN(deg)": 334.9543482331824,
        "Satellite Name": "Starlink Shell 1 1495",
        "Satellite Number": 1495,
        "Semi-Major Axis(m)": 6931778.249405717,
        "Time(s)": 880
    },
    {
        "Altitude(m)": 555137.5936816977,
        "Argument of Periapsis(deg)": 0.031023484676500086,
        "Eccentricity": 0.0,
        "Inclination(deg)": 53.0,
        "Latitude(deg)": 30.593168213162958,
        "Longitude(deg)": -102.43260473732576,
        "Mean Anomaly(deg)": -320.57562288345235,
        "RAAN(deg)": 334.95382946310497,
        "Satellite Name": "Starlink Shell 1 1495",
        "Satellite Number": 1495,
        "Semi-Major Axis(m)": 6931778.249405717,
        "Time(s)": 890
    },
    {
        "Altitude(m)": 555212.6714228656,
        "Argument of Periapsis(deg)": 0.03137206315601132,
        "Eccentricity": 0.0,
        "Inclination(deg)": 53.0,
        "Latitude(deg)": 31.04292638239681,
        "Longitude(deg)": -101.96397766750859,
        "Mean Anomaly(deg)": -319.94879167989563,
        "RAAN(deg)": 334.9533106930275,
        "Satellite Name": "Starlink Shell 1 1495",
        "Satellite Number": 1495,
        "Semi-Major Axis(m)": 6931778.249405717,
        "Time(s)": 900
    },
    {
        "Altitude(m)": 555288.6867083733,
        "Argument of Periapsis(deg)": 0.03172064163552255,
        "Eccentricity": 0.0,
        "Inclination(deg)": 53.0,
        "Latitude(deg)": 31.490619386143592,
        "Longitude(deg)": -101.49054910275069,
        "Mean Anomaly(deg)": -319.321960476339,
        "RAAN(deg)": 334.95279192295,
        "Satellite Name": "Starlink Shell 1 1495",
        "Satellite Number": 1495,
        "Semi-Major Axis(m)": 6931778.249405717,
        "Time(s)": 910
    },
    {
        "Altitude(m)": 555365.5849868114,
        "Argument of Periapsis(deg)": 0.0320692201150338,
        "Eccentricity": 0.0,
        "Inclination(deg)": 53.0,
        "Latitude(deg)": 31.936191667927893,
        "Longitude(deg)": -101.01221040847382,
        "Mean Anomaly(deg)": -318.6951292727822,
        "RAAN(deg)": 334.9522731528725,
        "Satellite Name": "Starlink Shell 1 1495",
        "Satellite Number": 1495,
        "Semi-Major Axis(m)": 6931778.249405717,
        "Time(s)": 920
    },
    {
        "Altitude(m)": 555443.3114606794,
        "Argument of Periapsis(deg)": 0.032417798594545036,
        "Eccentricity": 0.0,
        "Inclination(deg)": 53.0,
        "Latitude(deg)": 32.379586396311,
        "Longitude(deg)": -100.52885122564763,
        "Mean Anomaly(deg)": -318.0682980692256,
        "RAAN(deg)": 334.95175438279506,
        "Satellite Name": "Starlink Shell 1 1495",
        "Satellite Number": 1495,
        "Semi-Major Axis(m)": 6931778.249405717,
        "Time(s)": 930
    },
    {
        "Altitude(m)": 555521.8111150406,
        "Argument of Periapsis(deg)": 0.03276637707405627,
        "Eccentricity": 0.0,
        "Inclination(deg)": 53.0,
        "Latitude(deg)": 32.82074543213755,
        "Longitude(deg)": -100.04036051232943,
        "Mean Anomaly(deg)": -317.4414668656689,
        "RAAN(deg)": 334.9512356127176,
        "Satellite Name": "Starlink Shell 1 1495",
        "Satellite Number": 1495,
        "Semi-Major Axis(m)": 6931778.249405717,
        "Time(s)": 940
    }
]